{
  "type": "FeatureCollection",
  "features": [
    {
      "type": "Feature",
      "properties": {
        "norad_id": 34079,
        "name": "IRIDIUM 33 DEB",
        "group": "iridium-33-debris",
        "lat": -60.354497556107205,
        "lon": -164.54854103277083,
        "alt_km": 628.183673007049,
        "timestamp": "2025-12-11T20:41:15.465723+00:00",
        "meta_object_name": "IRIDIUM 33 DEB",
        "meta_object_id": "1997-051CN",
        "meta_epoch": "2025-12-11T12:15:30.000096",
        "meta_mean_motion": 14.83481168,
        "meta_eccentricity": 0.00057783,
        "meta_inclination": 86.3779,
        "meta_ra_of_asc_node": 9.2208,
        "meta_arg_of_pericenter": 12.3601,
        "meta_mean_anomaly": 153.7042,
        "meta_ephemeris_type": 0,
        "meta_classification_type": "U",
        "meta_norad_cat_id": 34079,
        "meta_element_set_no": 999,
        "meta_rev_at_epoch": 88959,
        "meta_bstar": 0.0032219276,
        "meta_mean_motion_dot": 0.00026584,
        "meta_mean_motion_ddot": 0,
        "tle_line1": "1 34079U 97051CN  25345.51076389  .00026584  00000+0  32219-2 0  9996",
        "tle_line2": "2 34079  86.3779   9.2208 0005778  12.3601 153.7042 14.83481168889591"
      },
      "geometry": {
        "type": "Point",
        "coordinates": [
          -164.54854103277083,
          -60.354497556107205
        ]
      }
    },
    {
      "type": "Feature",
      "properties": {
        "norad_id": 34088,
        "name": "IRIDIUM 33 DEB",
        "group": "iridium-33-debris",
        "lat": -52.810518373241955,
        "lon": 26.347078490909336,
        "alt_km": 603.2954648614877,
        "timestamp": "2025-12-11T20:41:15.465734+00:00",
        "meta_object_name": "IRIDIUM 33 DEB",
        "meta_object_id": "1997-051CX",
        "meta_epoch": "2025-12-11T15:11:32.508096",
        "meta_mean_motion": 14.91300656,
        "meta_eccentricity": 0.00055827,
        "meta_inclination": 86.3846,
        "meta_ra_of_asc_node": 31.2323,
        "meta_arg_of_pericenter": 180.2413,
        "meta_mean_anomaly": 338.3736,
        "meta_ephemeris_type": 0,
        "meta_classification_type": "U",
        "meta_norad_cat_id": 34088,
        "meta_element_set_no": 999,
        "meta_rev_at_epoch": 88725,
        "meta_bstar": 0.0039129178,
        "meta_mean_motion_dot": 0.00039169,
        "meta_mean_motion_ddot": 0,
        "tle_line1": "1 34088U 97051CX  25345.63301514  .00039169  00000+0  39129-2 0  9990",
        "tle_line2": "2 34088  86.3846  31.2323 0005582 180.2413 338.3736 14.91300656887251"
      },
      "geometry": {
        "type": "Point",
        "coordinates": [
          26.347078490909336,
          -52.810518373241955
        ]
      }
    },
    {
      "type": "Feature",
      "properties": {
        "norad_id": 34091,
        "name": "IRIDIUM 33 DEB",
        "group": "iridium-33-debris",
        "lat": 17.34517343101915,
        "lon": -113.90872010371461,
        "alt_km": 640.5945789883826,
        "timestamp": "2025-12-11T20:41:15.465744+00:00",
        "meta_object_name": "IRIDIUM 33 DEB",
        "meta_object_id": "1997-051DA",
        "meta_epoch": "2025-12-11T11:50:58.984800",
        "meta_mean_motion": 14.81687233,
        "meta_eccentricity": 0.00333541,
        "meta_inclination": 86.3408,
        "meta_ra_of_asc_node": 67.4052,
        "meta_arg_of_pericenter": 297.7713,
        "meta_mean_anomaly": 62.0128,
        "meta_ephemeris_type": 0,
        "meta_classification_type": "U",
        "meta_norad_cat_id": 34091,
        "meta_element_set_no": 999,
        "meta_rev_at_epoch": 87848,
        "meta_bstar": 0.010203034,
        "meta_mean_motion_dot": 0.00081971,
        "meta_mean_motion_ddot": 0,
        "tle_line1": "1 34091U 97051DA  25345.49373825  .00081971  00000+0  10203-1 0  9991",
        "tle_line2": "2 34091  86.3408  67.4052 0033354 297.7713  62.0128 14.81687233878483"
      },
      "geometry": {
        "type": "Point",
        "coordinates": [
          -113.90872010371461,
          17.34517343101915
        ]
      }
    },
    {
      "type": "Feature",
      "properties": {
        "norad_id": 34097,
        "name": "IRIDIUM 33 DEB",
        "group": "iridium-33-debris",
        "lat": -19.26066830484853,
        "lon": -176.8743193988745,
        "alt_km": 838.3966465055491,
        "timestamp": "2025-12-11T20:41:15.465755+00:00",
        "meta_object_name": "IRIDIUM 33 DEB",
        "meta_object_id": "1997-051DG",
        "meta_epoch": "2025-12-11T11:23:32.776224",
        "meta_mean_motion": 14.34761782,
        "meta_eccentricity": 0.00827273,
        "meta_inclination": 86.2006,
        "meta_ra_of_asc_node": 1.966,
        "meta_arg_of_pericenter": 6.3255,
        "meta_mean_anomaly": 353.8964,
        "meta_ephemeris_type": 0,
        "meta_classification_type": "U",
        "meta_norad_cat_id": 34097,
        "meta_element_set_no": 999,
        "meta_rev_at_epoch": 87101,
        "meta_bstar": 0.0024034747,
        "meta_mean_motion_dot": 7.099e-05,
        "meta_mean_motion_ddot": 0,
        "tle_line1": "1 34097U 97051DG  25345.47468491  .00007099  00000+0  24035-2 0  9997",
        "tle_line2": "2 34097  86.2006   1.9660 0082727   6.3255 353.8964 14.34761782871014"
      },
      "geometry": {
        "type": "Point",
        "coordinates": [
          -176.8743193988745,
          -19.26066830484853
        ]
      }
    },
    {
      "type": "Feature",
      "properties": {
        "norad_id": 34145,
        "name": "IRIDIUM 33 DEB",
        "group": "iridium-33-debris",
        "lat": 83.60241541216801,
        "lon": 9.13387598371174,
        "alt_km": 704.6762201798438,
        "timestamp": "2025-12-11T20:41:15.465765+00:00",
        "meta_object_name": "IRIDIUM 33 DEB",
        "meta_object_id": "1997-051DY",
        "meta_epoch": "2025-12-10T04:20:07.855008",
        "meta_mean_motion": 14.42258512,
        "meta_eccentricity": 0.0055658,
        "meta_inclination": 86.2123,
        "meta_ra_of_asc_node": 333.6661,
        "meta_arg_of_pericenter": 101.9259,
        "meta_mean_anomaly": 258.8189,
        "meta_ephemeris_type": 0,
        "meta_classification_type": "U",
        "meta_norad_cat_id": 34145,
        "meta_element_set_no": 999,
        "meta_rev_at_epoch": 87601,
        "meta_bstar": 0.0015884,
        "meta_mean_motion_dot": 5.356e-05,
        "meta_mean_motion_ddot": 0,
        "tle_line1": "1 34145U 97051DY  25344.18064647  .00005356  00000+0  15884-2 0  9999",
        "tle_line2": "2 34145  86.2123 333.6661 0055658 101.9259 258.8189 14.42258512876012"
      },
      "geometry": {
        "type": "Point",
        "coordinates": [
          9.13387598371174,
          83.60241541216801
        ]
      }
    },
    {
      "type": "Feature",
      "properties": {
        "norad_id": 34146,
        "name": "IRIDIUM 33 DEB",
        "group": "iridium-33-debris",
        "lat": 60.962008844951335,
        "lon": -3.0890455883386925,
        "alt_km": 740.2518757403286,
        "timestamp": "2025-12-11T20:41:15.465776+00:00",
        "meta_object_name": "IRIDIUM 33 DEB",
        "meta_object_id": "1997-051DZ",
        "meta_epoch": "2025-12-11T11:10:04.073952",
        "meta_mean_motion": 14.49036122,
        "meta_eccentricity": 0.00253898,
        "meta_inclination": 86.284,
        "meta_ra_of_asc_node": 350.3635,
        "meta_arg_of_pericenter": 226.1164,
        "meta_mean_anomaly": 287.3329,
        "meta_ephemeris_type": 0,
        "meta_classification_type": "U",
        "meta_norad_cat_id": 34146,
        "meta_element_set_no": 999,
        "meta_rev_at_epoch": 88088,
        "meta_bstar": 0.0016681289,
        "meta_mean_motion_dot": 6.375e-05,
        "meta_mean_motion_ddot": 0,
        "tle_line1": "1 34146U 97051DZ  25345.46532493  .00006375  00000+0  16681-2 0  9999",
        "tle_line2": "2 34146  86.2840 350.3635 0025389 226.1164 287.3329 14.49036122880880"
      },
      "geometry": {
        "type": "Point",
        "coordinates": [
          -3.0890455883386925,
          60.962008844951335
        ]
      }
    },
    {
      "type": "Feature",
      "properties": {
        "norad_id": 34159,
        "name": "IRIDIUM 33 DEB",
        "group": "iridium-33-debris",
        "lat": 10.666385361860137,
        "lon": -132.07299498398314,
        "alt_km": 774.8192440971443,
        "timestamp": "2025-12-11T20:41:15.465786+00:00",
        "meta_object_name": "IRIDIUM 33 DEB",
        "meta_object_id": "1997-051EN",
        "meta_epoch": "2025-12-11T14:53:33.595008",
        "meta_mean_motion": 14.38488957,
        "meta_eccentricity": 0.0025992,
        "meta_inclination": 86.3509,
        "meta_ra_of_asc_node": 48.7186,
        "meta_arg_of_pericenter": 291.8319,
        "meta_mean_anomaly": 68.0115,
        "meta_ephemeris_type": 0,
        "meta_classification_type": "U",
        "meta_norad_cat_id": 34159,
        "meta_element_set_no": 999,
        "meta_rev_at_epoch": 87943,
        "meta_bstar": 0.00059374897,
        "meta_mean_motion_dot": 1.839e-05,
        "meta_mean_motion_ddot": 0,
        "tle_line1": "1 34159U 97051EN  25345.62052772  .00001839  00000+0  59375-3 0  9996",
        "tle_line2": "2 34159  86.3509  48.7186 0025992 291.8319  68.0115 14.38488957879438"
      },
      "geometry": {
        "type": "Point",
        "coordinates": [
          -132.07299498398314,
          10.666385361860137
        ]
      }
    }
  ]
}